{
"type": "FeatureCollection",
"name": "derecik",
"crs": { "type": "name", "properties": { "name": "urn:ogc:def:crs:OGC:1.3:CRS84" } },
"features": [
{ "type": "Feature", "properties": { "fid": 4, "full_id": "w133017922", "osm_id": "133017922", "osm_type": "way", "waterway": "river", "tunnel": null, "layer": null, "alt_name": null, "wikipedia": null, "wikidata": null, "name:tr": null, "name:ru": null, "name:en": null, "name:el": null, "name:de": null, "name": "Değirmendere", "boat": "no", "su_seviyesi": 5.0, "risk": 0, "id": 1 }, "geometry": { "type": "LineString", "coordinates": [ [ 39.6402853, 40.8417845 ], [ 39.6418915, 40.842927 ], [ 39.6430235, 40.8435341 ], [ 39.6433078, 40.8436161 ], [ 39.6437321, 40.843578 ], [ 39.6448159, 40.8432704 ], [ 39.6450604, 40.843329899999986 ], [ 39.6455929, 40.8438318 ], [ 39.6461341, 40.8448356 ], [ 39.6465269, 40.8452252 ], [ 39.6475308, 40.8455422 ], [ 39.6489887, 40.845865700000012 ], [ 39.6495124, 40.8465657 ], [ 39.6500013, 40.8468761 ], [ 39.653528, 40.8480713 ], [ 39.6541827, 40.8487515 ], [ 39.6556668, 40.8493656 ], [ 39.6565572, 40.8502174 ], [ 39.6572294, 40.8512343 ], [ 39.6574912, 40.852383200000013 ], [ 39.6575873, 40.8531162 ], [ 39.6580237, 40.8536906 ], [ 39.6588705, 40.8539349 ], [ 39.6596998, 40.8539085 ], [ 39.6603568, 40.8537567 ], [ 39.6643443, 40.8542796 ], [ 39.6672085, 40.8551947 ], [ 39.6691838, 40.8554749 ], [ 39.6699121, 40.856165799999978 ], [ 39.6704306, 40.8566327 ], [ 39.6709121, 40.8566607 ], [ 39.6716405, 40.856249900000016 ], [ 39.6725664, 40.8565207 ], [ 39.6736405, 40.8565767 ], [ 39.6746775, 40.8570716 ], [ 39.6763688, 40.8573704 ], [ 39.6768626, 40.8576692 ] ] } },
{ "type": "Feature", "properties": { "fid": 5, "full_id": "w133017923", "osm_id": "133017923", "osm_type": "way", "waterway": "river", "tunnel": null, "layer": null, "alt_name": null, "wikipedia": null, "wikidata": null, "name:tr": null, "name:ru": null, "name:en": null, "name:el": null, "name:de": null, "name": "Değirmendere", "boat": "no", "su_seviyesi": 5.0, "risk": 0, "id": 1 }, "geometry": { "type": "LineString", "coordinates": [ [ 39.7410609, 40.9645603 ], [ 39.7411195, 40.965119 ], [ 39.7414027, 40.9652993 ], [ 39.7421261, 40.965392 ], [ 39.7425036, 40.965443399999977 ], [ 39.7429217, 40.965510099999989 ], [ 39.7437592, 40.9657829 ], [ 39.7445771, 40.9661902 ], [ 39.7460824, 40.9671363 ], [ 39.7463364, 40.967431799999986 ], [ 39.7465096, 40.9678823 ], [ 39.746563, 40.968062299999985 ], [ 39.7464668, 40.968386099999989 ], [ 39.746181, 40.9689668 ], [ 39.7462899, 40.9696195 ], [ 39.7465135, 40.9699823 ], [ 39.7469699, 40.9702964 ], [ 39.7479966, 40.9705789 ], [ 39.7484404, 40.9708877 ], [ 39.7488058, 40.9714724 ], [ 39.7490756, 40.9725563 ], [ 39.7490791, 40.9730075 ], [ 39.7494741, 40.9738887 ], [ 39.7499261, 40.9747822 ], [ 39.7498895, 40.9754296 ], [ 39.7495737, 40.97599910000001 ], [ 39.7491766, 40.9764765 ], [ 39.7491365, 40.9771811 ], [ 39.749354, 40.9777789 ], [ 39.7499805, 40.978462 ], [ 39.7509028, 40.979125500000016 ], [ 39.7509985, 40.979467 ], [ 39.750868, 40.9802093 ], [ 39.7509174, 40.9811415 ], [ 39.7507635, 40.982528 ], [ 39.7507897, 40.983001 ], [ 39.7502589, 40.9849452 ], [ 39.7501023, 40.986285100000011 ], [ 39.7508767, 40.9882686 ], [ 39.7513552, 40.9889911 ], [ 39.7515553, 40.98995 ], [ 39.7517903, 40.9909417 ], [ 39.7521992, 40.991243799999985 ], [ 39.7552968, 40.9925705 ], [ 39.7555926, 40.992944799999989 ], [ 39.7556761, 40.9934584 ], [ 39.7556344, 40.9942254 ], [ 39.7561982, 40.9952657 ], [ 39.7564349, 40.997109700000017 ], [ 39.7566646, 40.9978295 ], [ 39.756873400000011, 40.999263700000014 ], [ 39.7570683, 41.0010393 ], [ 39.7571558, 41.0017436 ], [ 39.7571627, 41.0022249 ], [ 39.7569927, 41.002562 ] ] } },
{ "type": "Feature", "properties": { "fid": 17, "full_id": "w219768966", "osm_id": "219768966", "osm_type": "way", "waterway": "river", "tunnel": null, "layer": null, "alt_name": null, "wikipedia": null, "wikidata": null, "name:tr": null, "name:ru": null, "name:en": null, "name:el": null, "name:de": null, "name": "Değirmendere", "boat": "no", "su_seviyesi": 5.0, "risk": 0, "id": 1 }, "geometry": { "type": "LineString", "coordinates": [ [ 39.6768626, 40.8576692 ], [ 39.677949, 40.8593312 ], [ 39.678912, 40.860162200000012 ], [ 39.680307, 40.8608251 ], [ 39.6806156, 40.8616094 ], [ 39.6808996, 40.86185219999998 ], [ 39.6812946, 40.862393699999977 ], [ 39.6820107, 40.8628792 ], [ 39.6823934, 40.86361680000001 ], [ 39.6828502, 40.864195599999988 ], [ 39.6835662, 40.8650452 ], [ 39.6842699, 40.8669125 ], [ 39.684344, 40.868490199999975 ], [ 39.6838995, 40.8694238 ], [ 39.6839489, 40.869918599999984 ], [ 39.6839613, 40.8712069 ], [ 39.6843307, 40.8724036 ], [ 39.6847929, 40.8732423 ], [ 39.6852982, 40.873764199999989 ], [ 39.6858589, 40.8743233 ], [ 39.6873625, 40.875343699999981 ], [ 39.6882868, 40.8758097 ], [ 39.6890447, 40.876065899999986 ], [ 39.6898396, 40.8760519 ], [ 39.6905746, 40.876166099999985 ], [ 39.691151, 40.876727300000013 ], [ 39.6916749, 40.877433799999984 ], [ 39.6918583, 40.878430799999983 ], [ 39.6925045, 40.8791373 ], [ 39.6944606, 40.8798306 ], [ 39.6965389, 40.8801343 ], [ 39.6979885, 40.8808407 ], [ 39.69908, 40.881666 ], [ 39.6992763, 40.8822612 ], [ 39.6995184, 40.8832434 ], [ 39.6998659, 40.8840494 ], [ 39.7005551, 40.8850057 ], [ 39.7008947, 40.8853647 ], [ 39.7010929, 40.885633299999988 ], [ 39.701283, 40.8859942 ], [ 39.7016207, 40.886345400000017 ], [ 39.7019277, 40.8866594 ], [ 39.7023364, 40.8868903 ], [ 39.7026617, 40.8871714 ], [ 39.70293, 40.8874871 ], [ 39.7033325, 40.8878816 ], [ 39.7036577, 40.8882669 ], [ 39.7039092, 40.8884812 ], [ 39.704472, 40.88886489999998 ], [ 39.7049942, 40.88925480000001 ], [ 39.7054893, 40.889628799999983 ], [ 39.7059464, 40.8901479 ], [ 39.7065091, 40.8907997 ], [ 39.7069859, 40.8911759 ], [ 39.7074091, 40.891576599999986 ], [ 39.7077066, 40.89208739999998 ], [ 39.7084497, 40.8926765 ], [ 39.7087201, 40.892962299999979 ], [ 39.7089092, 40.8932973 ], [ 39.7092915, 40.8935309 ], [ 39.7097999, 40.893736899999986 ], [ 39.7103957, 40.8939198 ], [ 39.7109794, 40.8941197 ], [ 39.7119764, 40.89471529999998 ], [ 39.7125018, 40.8951597 ], [ 39.7139514, 40.8972257 ], [ 39.7174356, 40.9026579 ], [ 39.7180818, 40.9039779 ], [ 39.7187021, 40.9060737 ], [ 39.7204939, 40.911953499999989 ], [ 39.721803, 40.914109300000014 ], [ 39.7242358, 40.917440899999981 ], [ 39.7252855, 40.9197365 ], [ 39.7262611, 40.9233758 ], [ 39.7272491, 40.9251113 ], [ 39.7291139, 40.927901199999987 ], [ 39.73025, 40.9302151 ], [ 39.7313862, 40.9337605 ], [ 39.7325841, 40.9356544 ], [ 39.7351528, 40.9386118 ], [ 39.7368767, 40.940759 ], [ 39.7374684, 40.9414623 ], [ 39.7381123, 40.9418501 ], [ 39.7387997, 40.942047299999984 ], [ 39.7395915, 40.9422642 ], [ 39.7400874, 40.942803099999985 ], [ 39.7400439, 40.943118599999977 ], [ 39.7392434, 40.9436312 ], [ 39.7380775, 40.944157 ], [ 39.737625, 40.9445711 ], [ 39.7375815, 40.9455306 ], [ 39.7378861, 40.946293 ], [ 39.7382341, 40.9466741 ], [ 39.7390868, 40.946969900000013 ], [ 39.7405486, 40.9470816 ], [ 39.7421931, 40.9474496 ], [ 39.7434895, 40.9480148 ], [ 39.7445771, 40.94863260000001 ], [ 39.74496, 40.9489809 ], [ 39.7450551, 40.9492131 ], [ 39.7451361, 40.9494715 ], [ 39.7451323, 40.949810499999977 ], [ 39.7450932, 40.950243100000016 ], [ 39.7449774, 40.950590099999985 ], [ 39.7449728, 40.950877 ], [ 39.7451693, 40.9512325 ], [ 39.7456837, 40.9522961 ], [ 39.7458219, 40.9525911 ], [ 39.745907, 40.9529583 ], [ 39.7459133, 40.9531952 ], [ 39.7458436, 40.9534013 ], [ 39.7456529, 40.9535892 ], [ 39.7453755, 40.9537812 ], [ 39.7450578, 40.9540821 ], [ 39.7448784, 40.9542982 ], [ 39.7447295, 40.954649599999989 ], [ 39.744678, 40.9548968 ], [ 39.744474, 40.9552087 ], [ 39.7441852, 40.9555296 ], [ 39.7439018, 40.955758299999985 ], [ 39.7437037, 40.9560558 ], [ 39.7435096, 40.9564246 ], [ 39.7432333, 40.95689 ], [ 39.7429819, 40.9571884 ], [ 39.7429071, 40.9574778 ], [ 39.7429261, 40.9577609 ], [ 39.743005, 40.9582107 ], [ 39.7431502, 40.9592518 ], [ 39.7430865, 40.960479899999989 ], [ 39.7429753, 40.9614291 ], [ 39.7428762, 40.961956 ], [ 39.7426561, 40.9624248 ], [ 39.7424081, 40.9627526 ], [ 39.7422169, 40.9629071 ], [ 39.7419358, 40.96316010000001 ], [ 39.741559, 40.9634092 ], [ 39.7413969, 40.9635085 ], [ 39.7409724, 40.9641547 ], [ 39.7410609, 40.9645603 ] ] } }
]
}
